{
  "type": "FeatureCollection",
  "features": [
    {
      "type": "Feature",
      "properties": {
        "norad_id": 40938,
        "name": "BEIDOU-3S IGSO-2S (C56)",
        "group": "gnss",
        "lat": 49.437688508384525,
        "lon": -3.93288555616732,
        "alt_km": 35804.312340044664,
        "timestamp": "2025-12-15T11:38:37.396228+00:00",
        "meta_object_name": "BEIDOU-3S IGSO-2S (C56)",
        "meta_object_id": "2015-053A",
        "meta_epoch": "2025-12-14T17:18:08.881632",
        "meta_mean_motion": 1.00269855,
        "meta_eccentricity": 0.00607495,
        "meta_inclination": 49.5075,
        "meta_ra_of_asc_node": 260.9813,
        "meta_arg_of_pericenter": 188.8748,
        "meta_mean_anomaly": 349.2992,
        "meta_ephemeris_type": 0,
        "meta_classification_type": "U",
        "meta_norad_cat_id": 40938,
        "meta_element_set_no": 999,
        "meta_rev_at_epoch": 3750,
        "meta_bstar": 0,
        "meta_mean_motion_dot": -1.5e-06,
        "meta_mean_motion_ddot": 0,
        "tle_line1": "1 40938U 15053A   25348.72093613 -.00000150  00000+0  00000+0 0  9996",
        "tle_line2": "2 40938  49.5075 260.9813 0060749 188.8748 349.2992  1.00269855 37504"
      },
      "geometry": {
        "type": "Point",
        "coordinates": [
          -3.93288555616732,
          49.437688508384525
        ]
      }
    },
    {
      "type": "Feature",
      "properties": {
        "norad_id": 41019,
        "name": "GPS BIIF-11 (PRN 10)",
        "group": "gnss",
        "lat": 40.25040581192323,
        "lon": -175.66883893255456,
        "alt_km": 20227.813006485278,
        "timestamp": "2025-12-15T11:38:37.396239+00:00",
        "meta_object_name": "GPS BIIF-11 (PRN 10)",
        "meta_object_id": "2015-062A",
        "meta_epoch": "2025-12-12T19:26:17.014560",
        "meta_mean_motion": 2.00567164,
        "meta_eccentricity": 0.01108438,
        "meta_inclination": 56.8322,
        "meta_ra_of_asc_node": 37.9995,
        "meta_arg_of_pericenter": 229.9503,
        "meta_mean_anomaly": 129.1214,
        "meta_ephemeris_type": 0,
        "meta_classification_type": "U",
        "meta_norad_cat_id": 41019,
        "meta_element_set_no": 999,
        "meta_rev_at_epoch": 7409,
        "meta_bstar": 0,
        "meta_mean_motion_dot": -9.6e-07,
        "meta_mean_motion_ddot": 0,
        "tle_line1": "1 41019U 15062A   25346.80991915 -.00000096  00000+0  00000+0 0  9995",
        "tle_line2": "2 41019  56.8322  37.9995 0110843 229.9503 129.1214  2.00567164 74093"
      },
      "geometry": {
        "type": "Point",
        "coordinates": [
          -175.66883893255456,
          40.25040581192323
        ]
      }
    },
    {
      "type": "Feature",
      "properties": {
        "norad_id": 41028,
        "name": "GSAT-15 (GAGAN/PRN 139)",
        "group": "gnss",
        "lat": 0.04343340394308101,
        "lon": -7.440797527277867,
        "alt_km": 35792.490821642816,
        "timestamp": "2025-12-15T11:38:37.396251+00:00",
        "meta_object_name": "GSAT-15 (GAGAN/PRN 139)",
        "meta_object_id": "2015-065A",
        "meta_epoch": "2025-12-14T22:34:38.633952",
        "meta_mean_motion": 1.00271432,
        "meta_eccentricity": 0.00027477,
        "meta_inclination": 0.0405,
        "meta_ra_of_asc_node": 267.0719,
        "meta_arg_of_pericenter": 322.6173,
        "meta_mean_anomaly": 286.3238,
        "meta_ephemeris_type": 0,
        "meta_classification_type": "U",
        "meta_norad_cat_id": 41028,
        "meta_element_set_no": 999,
        "meta_rev_at_epoch": 3695,
        "meta_bstar": 0,
        "meta_mean_motion_dot": -2.38e-06,
        "meta_mean_motion_ddot": 0,
        "tle_line1": "1 41028U 15065A   25348.94072493 -.00000238  00000+0  00000+0 0  9994",
        "tle_line2": "2 41028   0.0405 267.0719 0002747 322.6173 286.3238  1.00271432 36957"
      },
      "geometry": {
        "type": "Point",
        "coordinates": [
          -7.440797527277867,
          0.04343340394308101
        ]
      }
    },
    {
      "type": "Feature",
      "properties": {
        "norad_id": 41174,
        "name": "GSAT0209 (GALILEO 12)",
        "group": "gnss",
        "lat": 23.55661001646001,
        "lon": 123.58008024475723,
        "alt_km": 23213.727961055272,
        "timestamp": "2025-12-15T11:38:37.396262+00:00",
        "meta_object_name": "GSAT0209 (GALILEO 12)",
        "meta_object_id": "2015-079A",
        "meta_epoch": "2025-12-13T16:16:46.046208",
        "meta_mean_motion": 1.70474514,
        "meta_eccentricity": 0.00024314,
        "meta_inclination": 55.7133,
        "meta_ra_of_asc_node": 106.3552,
        "meta_arg_of_pericenter": 349.5598,
        "meta_mean_anomaly": 10.4024,
        "meta_ephemeris_type": 0,
        "meta_classification_type": "U",
        "meta_norad_cat_id": 41174,
        "meta_element_set_no": 999,
        "meta_rev_at_epoch": 6161,
        "meta_bstar": 0,
        "meta_mean_motion_dot": -1e-08,
        "meta_mean_motion_ddot": 0,
        "tle_line1": "1 41174U 15079A   25347.67831072 -.00000001  00000+0  00000+0 0  9994",
        "tle_line2": "2 41174  55.7133 106.3552 0002431 349.5598  10.4024  1.70474514 61616"
      },
      "geometry": {
        "type": "Point",
        "coordinates": [
          123.58008024475723,
          23.55661001646001
        ]
      }
    },
    {
      "type": "Feature",
      "properties": {
        "norad_id": 41175,
        "name": "GSAT0208 (GALILEO 11)",
        "group": "gnss",
        "lat": -52.51186608231237,
        "lon": -10.999301835694856,
        "alt_km": 23229.287016807197,
        "timestamp": "2025-12-15T11:38:37.396273+00:00",
        "meta_object_name": "GSAT0208 (GALILEO 11)",
        "meta_object_id": "2015-079B",
        "meta_epoch": "2025-12-12T17:24:26.771040",
        "meta_mean_motion": 1.70474307,
        "meta_eccentricity": 0.00018806,
        "meta_inclination": 55.7111,
        "meta_ra_of_asc_node": 106.3784,
        "meta_arg_of_pericenter": 358.3144,
        "meta_mean_anomaly": 1.6545,
        "meta_ephemeris_type": 0,
        "meta_classification_type": "U",
        "meta_norad_cat_id": 41175,
        "meta_element_set_no": 999,
        "meta_rev_at_epoch": 6201,
        "meta_bstar": 0,
        "meta_mean_motion_dot": 4e-08,
        "meta_mean_motion_ddot": 0,
        "tle_line1": "1 41175U 15079B   25346.72530985  .00000004  00000+0  00000+0 0  9991",
        "tle_line2": "2 41175  55.7111 106.3784 0001880 358.3144   1.6545  1.70474307 62017"
      },
      "geometry": {
        "type": "Point",
        "coordinates": [
          -10.999301835694856,
          -52.51186608231237
        ]
      }
    },
    {
      "type": "Feature",
      "properties": {
        "norad_id": 41241,
        "name": "IRNSS-1E",
        "group": "gnss",
        "lat": -25.069960185199665,
        "lon": 16.001905861042708,
        "alt_km": 35836.32167646365,
        "timestamp": "2025-12-15T11:38:37.396290+00:00",
        "meta_object_name": "IRNSS-1E",
        "meta_object_id": "2016-003A",
        "meta_epoch": "2025-12-12T20:06:57.569184",
        "meta_mean_motion": 1.00273817,
        "meta_eccentricity": 0.00218004,
        "meta_inclination": 32.8255,
        "meta_ra_of_asc_node": 62.4521,
        "meta_arg_of_pericenter": 187.6915,
        "meta_mean_anomaly": 245.1684,
        "meta_ephemeris_type": 0,
        "meta_classification_type": "U",
        "meta_norad_cat_id": 41241,
        "meta_element_set_no": 999,
        "meta_rev_at_epoch": 3621,
        "meta_bstar": 0,
        "meta_mean_motion_dot": -3.05e-06,
        "meta_mean_motion_ddot": 0,
        "tle_line1": "1 41241U 16003A   25346.83816631 -.00000305  00000+0  00000+0 0  9995",
        "tle_line2": "2 41241  32.8255  62.4521 0021800 187.6915 245.1684  1.00273817 36218"
      },
      "geometry": {
        "type": "Point",
        "coordinates": [
          16.001905861042708,
          -25.069960185199665
        ]
      }
    },
    {
      "type": "Feature",
      "properties": {
        "norad_id": 41328,
        "name": "GPS BIIF-12 (PRN 32)",
        "group": "gnss",
        "lat": 51.11498618334961,
        "lon": 155.47392974014818,
        "alt_km": 20419.043986517016,
        "timestamp": "2025-12-15T11:38:37.396302+00:00",
        "meta_object_name": "GPS BIIF-12 (PRN 32)",
        "meta_object_id": "2016-007A",
        "meta_epoch": "2025-12-14T09:19:00.023808",
        "meta_mean_motion": 2.00560678,
        "meta_eccentricity": 0.00922324,
        "meta_inclination": 55.4071,
        "meta_ra_of_asc_node": 96.7915,
        "meta_arg_of_pericenter": 243.6085,
        "meta_mean_anomaly": 115.4276,
        "meta_ephemeris_type": 0,
        "meta_classification_type": "U",
        "meta_norad_cat_id": 41328,
        "meta_element_set_no": 999,
        "meta_rev_at_epoch": 7213,
        "meta_bstar": 0,
        "meta_mean_motion_dot": -2.9e-07,
        "meta_mean_motion_ddot": 0,
        "tle_line1": "1 41328U 16007A   25348.38819472 -.00000029  00000+0  00000+0 0  9996",
        "tle_line2": "2 41328  55.4071  96.7915 0092232 243.6085 115.4276  2.00560678 72138"
      },
      "geometry": {
        "type": "Point",
        "coordinates": [
          155.47392974014818,
          51.11498618334961
        ]
      }
    }
  ]
}